{
  "norad_id": 62032,
  "name": "STARLINK-32637",
  "history": [
    {
      "epoch": "2026-03-28T20:53:28.049856Z",
      "apogee_km": 484.303531152339,
      "perigee_km": 481.7028845679524,
      "latitude_deg": -4.125716095573517e-05,
      "longitude_deg": 7.959877674904401,
      "height_km": 482.7328327067894,
      "semi_major_axis_km": 6861.140207860146,
      "eccentricity": 0.00018952,
      "inclination_deg": 43.0023,
      "raan_deg": 147.6115,
      "arg_perigee_deg": 272.1038,
      "mean_anomaly_deg": 87.9596,
      "mean_motion_rev_day": 15.27595325
    },
    {
      "epoch": "2026-03-30T04:16:35.915808Z",
      "apogee_km": 483.05278525730137,
      "perigee_km": 482.96221814987894,
      "latitude_deg": 9.266302775995675e-06,
      "longitude_deg": -111.4982000200491,
      "height_km": 482.8233197022227,
      "semi_major_axis_km": 6861.144501703589,
      "eccentricity": 6.6e-06,
      "inclination_deg": 42.9973,
      "raan_deg": 140.2251,
      "arg_perigee_deg": 154.1386,
      "mean_anomaly_deg": 205.9469,
      "mean_motion_rev_day": 15.27593891
    }
  ]
}